EXO-0                   
1 59175U 23174DK  26068.71046781  .00011582  00000+0  36716-3 0  9992
2 59175  97.3864 148.9039 0009878 157.1125 203.0559 15.32821991129797
STARLINK-35970          
1 66618U 25271B   26068.51230149  .00028731  00000+0  97887-3 0  9993
2 66618  53.1598 140.4594 0001390  68.2586 291.8563 15.30185753 17544
