[{"OBJECT_NAME":"EXO-0","OBJECT_ID":"2023-174DK","EPOCH":"2026-03-09T17:03:04.419648","MEAN_MOTION":15.32821991,"ECCENTRICITY":0.00098779,"INCLINATION":97.3864,"RA_OF_ASC_NODE":148.9039,"ARG_OF_PERICENTER":157.1125,"MEAN_ANOMALY":203.0559,"EPHEMERIS_TYPE":0,"CLASSIFICATION_TYPE":"U","NORAD_CAT_ID":59175,"ELEMENT_SET_NO":999,"REV_AT_EPOCH":12979,"BSTAR":0.00036716083,"MEAN_MOTION_DOT":0.00011582,"MEAN_MOTION_DDOT":0},{"OBJECT_NAME":"STARLINK-35970","OBJECT_ID":"2025-271B","EPOCH":"2026-03-09T12:17:42.848736","MEAN_MOTION":15.30185753,"ECCENTRICITY":0.00013902,"INCLINATION":53.1598,"RA_OF_ASC_NODE":140.4594,"ARG_OF_PERICENTER":68.2586,"MEAN_ANOMALY":291.8563,"EPHEMERIS_TYPE":0,"CLASSIFICATION_TYPE":"U","NORAD_CAT_ID":66618,"ELEMENT_SET_NO":999,"REV_AT_EPOCH":1754,"BSTAR":0.00097886568,"MEAN_MOTION_DOT":0.00028731,"MEAN_MOTION_DDOT":0}]
